{
  "type": "FeatureCollection",
  "name": "municipal",
  "crs": {
    "type": "name",
    "properties": {
      "name": "urn:ogc:def:crs:EPSG::3857"
    }
  },
  "features": [
    {
      "type": "Feature",
      "properties": {
        "parcel_id": "1042",
        "source": "municipal",
        "area_m2": 9500.0,
        "crs": "EPSG:3857"
      },
      "geometry": {
        "type": "Polygon",
        "coordinates": [
          [
            [0.0, 0.0],
            [100.0, 0.0],
            [100.0, 95.0],
            [0.0, 95.0],
            [0.0, 0.0]
          ]
        ]
      }
    }
  ]
}
