{
"type": "FeatureCollection",
"name": "municipal",
"crs": { "type": "name", "properties": { "name": "urn:ogc:def:crs:OGC:1.3:CRS84" } },
"features": [
{ "type": "Feature", "properties": { "parcel_id": "HYD-REV-1000", "owner": "Landowner_A", "land_use": "Residential", "source": "Municipal_Drone_Survey" }, "geometry": { "type": "Polygon", "coordinates": [ [ [ 78.509851191500005, 17.388134171499999 ], [ 78.509882503499995, 17.388123974499997 ], [ 78.509908356500006, 17.388115528499998 ], [ 78.509908768500011, 17.3881063615 ], [ 78.509919274499993, 17.387919313499999 ], [ 78.5097821815, 17.387939913499999 ], [ 78.509427449499995, 17.387937544500002 ], [ 78.5086932655, 17.387923948499999 ], [ 78.508343374499987, 17.387902627500001 ], [ 78.5078016975, 17.3878945935 ], [ 78.507582410500007, 17.387888928500001 ], [ 78.507572625499989, 17.388053728500001 ], [ 78.507602186499994, 17.388055685499999 ], [ 78.507622374500002, 17.388058775500003 ], [ 78.507922104499997, 17.388094413499999 ], [ 78.508329984499994, 17.388090293499999 ], [ 78.508330705500001, 17.388087821500001 ], [ 78.508351717499991, 17.388087409499999 ], [ 78.508379115499991, 17.388087924499999 ], [ 78.508380042499994, 17.3880900875 ], [ 78.508381793499993, 17.388090190499998 ], [ 78.508590059499994, 17.388095443499999 ], [ 78.50874826750001, 17.3880978125 ], [ 78.508926766500011, 17.388108730500001 ], [ 78.509076425499998, 17.388118000499997 ], [ 78.509202188499998, 17.388128609499997 ], [ 78.509222170499996, 17.388129227500002 ], [ 78.509351744499995, 17.388129124500001 ], [ 78.509410557500004, 17.388128506499999 ], [ 78.509587923499993, 17.3881288155 ], [ 78.509653019499993, 17.388130566499999 ], [ 78.509761581500001, 17.388132317500002 ], [ 78.509851191500005, 17.388134171499999 ] ] ] } },
{ "type": "Feature", "properties": { "parcel_id": "HYD-REV-1001", "owner": "Landowner_B", "land_use": "Residential", "source": "Municipal_Drone_Survey" }, "geometry": { "type": "Polygon", "coordinates": [ [ [ 78.5114621, 17.3875736 ], [ 78.5114917, 17.3873353 ], [ 78.5108757, 17.3875125 ], [ 78.5103516, 17.3877077 ], [ 78.5101694, 17.3877696 ], [ 78.5098551, 17.387902 ], [ 78.5098449, 17.3880836 ], [ 78.5098445, 17.3880925 ], [ 78.5098835, 17.3880798 ], [ 78.5099554, 17.388057 ], [ 78.5100634, 17.3880227 ], [ 78.5102645, 17.3879607 ], [ 78.5103416, 17.3879324 ], [ 78.5103729, 17.3879205 ], [ 78.5104949, 17.3878762 ], [ 78.5105807, 17.3878464 ], [ 78.5106641, 17.3878179 ], [ 78.510717, 17.3877996 ], [ 78.5111075, 17.3876806 ], [ 78.5111515, 17.3876631 ], [ 78.5111646, 17.3876587 ], [ 78.5114374, 17.3875823 ], [ 78.5114621, 17.3875736 ] ] ] } },
{ "type": "Feature", "properties": { "parcel_id": "HYD-REV-1002", "owner": "Disputed_Party_K", "land_use": "Residential", "source": "Municipal_Drone_Survey" }, "geometry": { "type": "Polygon", "coordinates": [ [ [ 78.5072762, 17.3880369 ], [ 78.5075482, 17.3880306 ], [ 78.5075768, 17.3880325 ], [ 78.5075863, 17.3878725 ], [ 78.505945, 17.3878575 ], [ 78.5058909, 17.3880198 ], [ 78.5059516, 17.3880213 ], [ 78.5060408, 17.3880219 ], [ 78.5061135, 17.3880211 ], [ 78.5061735, 17.3880227 ], [ 78.5062367, 17.3880214 ], [ 78.5063269, 17.3880233 ], [ 78.5064852, 17.3880239 ], [ 78.5066289, 17.3880324 ], [ 78.5068129, 17.388045 ], [ 78.5069486, 17.3880435 ], [ 78.5070877, 17.3880411 ], [ 78.5072762, 17.3880369 ] ] ] } },
{ "type": "Feature", "properties": { "parcel_id": "HYD-REV-1003", "owner": "Landowner_D", "land_use": "Residential", "source": "Municipal_Drone_Survey" }, "geometry": { "type": "Polygon", "coordinates": [ [ [ 78.505979044, 17.387880179 ], [ 78.506203069, 17.387529052 ], [ 78.505596708, 17.387540176 ], [ 78.505598253, 17.387568604 ], [ 78.50555489, 17.387746794 ], [ 78.505495562, 17.387737112 ], [ 78.50549267800001, 17.387746279 ], [ 78.505477331, 17.387906753 ], [ 78.505554478, 17.387946408 ], [ 78.505659023, 17.388001616 ], [ 78.505737097, 17.388042713 ], [ 78.505923321, 17.388047348 ], [ 78.505979044, 17.387880179 ] ] ] } },
{ "type": "Feature", "properties": { "parcel_id": "HYD-REV-1004", "owner": "Landowner_E", "land_use": "Residential", "source": "Municipal_Drone_Survey" }, "geometry": { "type": "Polygon", "coordinates": [ [ [ 78.5093776, 17.3879197 ], [ 78.509722, 17.387922 ], [ 78.5098551, 17.387902 ], [ 78.5099268, 17.387754 ], [ 78.5095428, 17.3877738 ], [ 78.5093776, 17.3879197 ] ] ] } },
{ "type": "Feature", "properties": { "parcel_id": "HYD-REV-1005", "owner": "Landowner_F", "land_use": "Commercial", "source": "Municipal_Drone_Survey" }, "geometry": { "type": "Polygon", "coordinates": [ [ [ 78.5086648, 17.3879065 ], [ 78.5093776, 17.3879197 ], [ 78.5095428, 17.3877738 ], [ 78.5089595, 17.3876913 ], [ 78.5089308, 17.3878402 ], [ 78.5086784, 17.3878234 ], [ 78.5086648, 17.3879065 ] ] ] } },
{ "type": "Feature", "properties": { "parcel_id": "HYD-REV-1006", "owner": "Landowner_G", "land_use": "Residential", "source": "Municipal_Drone_Survey" }, "geometry": { "type": "Polygon", "coordinates": [ [ [ 78.509880385499983, 17.387924746499998 ], [ 78.510204114499984, 17.387788374499998 ], [ 78.510136031499982, 17.387736153499997 ], [ 78.509954236499993, 17.3877723065 ], [ 78.509880385499983, 17.387924746499998 ] ] ] } },
{ "type": "Feature", "properties": { "parcel_id": "HYD-REV-1007", "owner": "Landowner_H", "land_use": "Residential", "source": "Municipal_Drone_Survey" }, "geometry": { "type": "Polygon", "coordinates": [ [ [ 78.5083251, 17.3878858 ], [ 78.5086648, 17.3879065 ], [ 78.5086784, 17.3878234 ], [ 78.5089308, 17.3878402 ], [ 78.5089595, 17.3876913 ], [ 78.5083533, 17.387639 ], [ 78.5083251, 17.3878858 ] ] ] } },
{ "type": "Feature", "properties": { "parcel_id": "HYD-REV-1008", "owner": "Encroached_Claimant_M", "land_use": "Residential", "source": "Municipal_Drone_Survey" }, "geometry": { "type": "Polygon", "coordinates": [ [ [ 78.5077992, 17.387878 ], [ 78.5083251, 17.3878858 ], [ 78.5083533, 17.387639 ], [ 78.5077818, 17.3875215 ], [ 78.5077992, 17.387878 ] ] ] } },
{ "type": "Feature", "properties": { "parcel_id": "HYD-REV-1009", "owner": "Landowner_J", "land_use": "Residential", "source": "Municipal_Drone_Survey" }, "geometry": { "type": "Polygon", "coordinates": [ [ [ 78.507832393499996, 17.387908012499999 ], [ 78.507814471499998, 17.387540817499996 ], [ 78.507784601500006, 17.387220487499995 ], [ 78.507718578500004, 17.387233053499997 ], [ 78.507694991499989, 17.387530929499999 ], [ 78.507692107499992, 17.387541641499997 ], [ 78.507613106500003, 17.387902347499999 ], [ 78.507832393499996, 17.387908012499999 ] ] ] } },
{ "type": "Feature", "properties": { "parcel_id": "HYD-REV-1010", "owner": "Landowner_K", "land_use": "Residential", "source": "Municipal_Drone_Survey" }, "geometry": { "type": "Polygon", "coordinates": [ [ [ 78.5075863, 17.3878725 ], [ 78.507663, 17.3875223 ], [ 78.5061625, 17.3875166 ], [ 78.505945, 17.3878575 ], [ 78.5075863, 17.3878725 ] ] ] } },
{ "type": "Feature", "properties": { "parcel_id": "HYD-REV-1011", "owner": "Landowner_L", "land_use": "Residential", "source": "Municipal_Drone_Survey" }, "geometry": { "type": "Polygon", "coordinates": [ [ [ 78.5101033, 17.3877189 ], [ 78.5101694, 17.3877696 ], [ 78.5103516, 17.3877077 ], [ 78.510244, 17.38757 ], [ 78.5101033, 17.3877189 ] ] ] } },
{ "type": "Feature", "properties": { "parcel_id": "HYD-REV-1012", "owner": "Landowner_M", "land_use": "Residential", "source": "Municipal_Drone_Survey" }, "geometry": { "type": "Polygon", "coordinates": [ [ [ 78.50959389, 17.387802249500002 ], [ 78.50998941, 17.387781855500002 ], [ 78.509980037, 17.3875960435 ], [ 78.50972882, 17.387628900499998 ], [ 78.509627468, 17.3875761645 ], [ 78.509015133, 17.387514055499999 ], [ 78.508554105, 17.387462246499997 ], [ 78.508356654, 17.387397356499999 ], [ 78.508102553, 17.387247285499999 ], [ 78.50775019000001, 17.387222050499997 ], [ 78.50778006, 17.387542380499998 ], [ 78.508368705, 17.3876634055 ], [ 78.508993091, 17.387717274499998 ], [ 78.50959389, 17.387802249500002 ] ] ] } },
{ "type": "Feature", "properties": { "parcel_id": "HYD-REV-1013", "owner": "Landowner_N", "land_use": "Residential", "source": "Municipal_Drone_Survey" }, "geometry": { "type": "Polygon", "coordinates": [ [ [ 78.5099268, 17.387754 ], [ 78.5101033, 17.3877189 ], [ 78.510244, 17.38757 ], [ 78.5107439, 17.387205 ], [ 78.5109112, 17.3871622 ], [ 78.5110877, 17.3869896 ], [ 78.511393, 17.3869272 ], [ 78.5114226, 17.3869063 ], [ 78.5115498, 17.3867972 ], [ 78.5114535, 17.3866685 ], [ 78.5109964, 17.3868375 ], [ 78.5108339, 17.3869722 ], [ 78.5106736, 17.3869614 ], [ 78.5105754, 17.3870013 ], [ 78.5102619, 17.3872858 ], [ 78.510086, 17.3873991 ], [ 78.5099249, 17.3875679 ], [ 78.5099177, 17.3875736 ], [ 78.5099268, 17.387754 ] ] ] } },
{ "type": "Feature", "properties": { "parcel_id": "HYD-REV-1014", "owner": "Landowner_O", "land_use": "Residential", "source": "Municipal_Drone_Survey" }, "geometry": { "type": "Polygon", "coordinates": [ [ [ 78.510244, 17.38757 ], [ 78.5103516, 17.3877077 ], [ 78.5108757, 17.3875125 ], [ 78.5109323, 17.3873549 ], [ 78.5107439, 17.387205 ], [ 78.510244, 17.38757 ] ] ] } },
{ "type": "Feature", "properties": { "parcel_id": "HYD-REV-1015", "owner": "Landowner_P", "land_use": "Residential", "source": "Municipal_Drone_Survey" }, "geometry": { "type": "Polygon", "coordinates": [ [ [ 78.509952005, 17.387610581499999 ], [ 78.509959421, 17.3876047105 ], [ 78.510125354, 17.387430846499999 ], [ 78.510306531, 17.3873141475 ], [ 78.510629435999988, 17.387021112500001 ], [ 78.510730582, 17.386980015499997 ], [ 78.510895690999988, 17.386991139499997 ], [ 78.511063066, 17.386852398499997 ], [ 78.511533879, 17.386678328499997 ], [ 78.511511116, 17.386516000499999 ], [ 78.511468989, 17.386411661499999 ], [ 78.511273906999989, 17.386441016499997 ], [ 78.510759113, 17.386625077499996 ], [ 78.510489253, 17.3866834785 ], [ 78.510001342, 17.386774221499998 ], [ 78.509491183, 17.386873616500001 ], [ 78.508953626, 17.386987019499998 ], [ 78.508465097, 17.387074569499998 ], [ 78.508132304, 17.387145227499996 ], [ 78.508074521, 17.387261823499998 ], [ 78.508328622, 17.387411894499998 ], [ 78.508526073, 17.387476784499995 ], [ 78.508987100999988, 17.387528593499997 ], [ 78.509599436, 17.387590702499999 ], [ 78.509700788, 17.387643438499996 ], [ 78.509952005, 17.387610581499999 ] ] ] } },
{ "type": "Feature", "properties": { "parcel_id": "HYD-REV-1016", "owner": "Landowner_Q", "land_use": "Residential", "source": "Municipal_Drone_Survey" }, "geometry": { "type": "Polygon", "coordinates": [ [ [ 78.5109323, 17.3873549 ], [ 78.5108757, 17.3875125 ], [ 78.5114917, 17.3873353 ], [ 78.511568, 17.3872325 ], [ 78.5118879, 17.387094 ], [ 78.5122662, 17.3868978 ], [ 78.5121887, 17.386817 ], [ 78.5117856, 17.3869965 ], [ 78.511659, 17.3871194 ], [ 78.5113572, 17.3872305 ], [ 78.5112236, 17.3872459 ], [ 78.5111071, 17.3872244 ], [ 78.5110895, 17.3872518 ], [ 78.5109848, 17.3872246 ], [ 78.5109112, 17.3871622 ], [ 78.5107439, 17.387205 ], [ 78.5109323, 17.3873549 ] ] ] } },
{ "type": "Feature", "properties": { "parcel_id": "HYD-REV-1017", "owner": "Landowner_R", "land_use": "Residential", "source": "Municipal_Drone_Survey" }, "geometry": { "type": "Polygon", "coordinates": [ [ [ 78.5055738, 17.3875274 ], [ 78.5061625, 17.3875166 ], [ 78.507663, 17.3875223 ], [ 78.5076658, 17.3875119 ], [ 78.5076887, 17.3872227 ], [ 78.5073587, 17.3872076 ], [ 78.5072764, 17.3873359 ], [ 78.5062903, 17.387321 ], [ 78.5059361, 17.3873263 ], [ 78.5056138, 17.3873351 ], [ 78.50557, 17.3874611 ], [ 78.5055738, 17.3875274 ] ] ] } },
{ "type": "Feature", "properties": { "parcel_id": "HYD-REV-1018", "owner": "Landowner_S", "land_use": "Residential", "source": "Municipal_Drone_Survey" }, "geometry": { "type": "Polygon", "coordinates": [ [ [ 78.511515083499987, 17.387358919499999 ], [ 78.511969416499994, 17.387195664499998 ], [ 78.511923169499994, 17.387110380500001 ], [ 78.511593672499984, 17.387253035499999 ], [ 78.511515083499987, 17.387358919499999 ] ] ] } },
{ "type": "Feature", "properties": { "parcel_id": "HYD-REV-1019", "owner": "Landowner_T", "land_use": "Residential", "source": "Municipal_Drone_Survey" }, "geometry": { "type": "Polygon", "coordinates": [ [ [ 78.5062903, 17.387321 ], [ 78.5072764, 17.3873359 ], [ 78.5073587, 17.3872076 ], [ 78.5072335, 17.3871852 ], [ 78.5069375, 17.3870142 ], [ 78.5069706, 17.3869018 ], [ 78.5068246, 17.3868395 ], [ 78.5066425, 17.3869998 ], [ 78.5063737, 17.3871651 ], [ 78.5062903, 17.387321 ] ] ] } },
{ "type": "Feature", "properties": { "parcel_id": "HYD-REV-1020", "owner": "Landowner_U", "land_use": "Residential", "source": "Municipal_Drone_Survey" }, "geometry": { "type": "Polygon", "coordinates": [ [ [ 78.5110895, 17.3872518 ], [ 78.5111071, 17.3872244 ], [ 78.5110553, 17.3871717 ], [ 78.5109112, 17.3871622 ], [ 78.5109848, 17.3872246 ], [ 78.5110895, 17.3872518 ] ] ] } },
{ "type": "Feature", "properties": { "parcel_id": "HYD-REV-1021", "owner": "Landowner_V", "land_use": "Residential", "source": "Municipal_Drone_Survey" }, "geometry": { "type": "Polygon", "coordinates": [ [ [ 78.511381417500004, 17.387258043499997 ], [ 78.511692271499996, 17.387143610499997 ], [ 78.511822669499992, 17.387017023499997 ], [ 78.512237862500001, 17.386832138499997 ], [ 78.512148664500003, 17.386724194500001 ], [ 78.512066058499997, 17.386757257499998 ], [ 78.512008069499998, 17.386841511499998 ], [ 78.511917944499999, 17.386828636499999 ], [ 78.511713489499996, 17.386803092499999 ], [ 78.511693816499999, 17.386803092499999 ], [ 78.511579795499998, 17.386811744499997 ], [ 78.5114487795, 17.386924117499998 ], [ 78.511418291499993, 17.386945644499995 ], [ 78.511103832499998, 17.387009916499998 ], [ 78.510922037499995, 17.387187694499996 ], [ 78.511070460499994, 17.387197479499996 ], [ 78.51112381450001, 17.3872517605 ], [ 78.511243809499987, 17.387273905499999 ], [ 78.511381417500004, 17.387258043499997 ] ] ] } },
{ "type": "Feature", "properties": { "parcel_id": "HYD-REV-1022", "owner": "Landowner_W", "land_use": "Residential", "source": "Municipal_Drone_Survey" }, "geometry": { "type": "Polygon", "coordinates": [ [ [ 78.5066953, 17.3867496 ], [ 78.5061433, 17.3865255 ], [ 78.5060759, 17.3865521 ], [ 78.5059466, 17.3867049 ], [ 78.5057075, 17.3865853 ], [ 78.5056729, 17.3864736 ], [ 78.5056611, 17.3865994 ], [ 78.5056117, 17.3867418 ], [ 78.5054798, 17.3871562 ], [ 78.505445, 17.3872399 ], [ 78.5056446, 17.3872466 ], [ 78.5056138, 17.3873351 ], [ 78.5059361, 17.3873263 ], [ 78.506428, 17.3869884 ], [ 78.5066953, 17.3867496 ] ] ] } },
{ "type": "Feature", "properties": { "parcel_id": "HYD-REV-1023", "owner": "Landowner_X", "land_use": "Residential", "source": "Municipal_Drone_Survey" }, "geometry": { "type": "Polygon", "coordinates": [ [ [ 78.5062903, 17.387321 ], [ 78.5063737, 17.3871651 ], [ 78.5066425, 17.3869998 ], [ 78.5068246, 17.3868395 ], [ 78.5070213, 17.3867039 ], [ 78.5071308, 17.3866154 ], [ 78.5071907, 17.3864423 ], [ 78.507161, 17.3862866 ], [ 78.5071058, 17.3860622 ], [ 78.5069232, 17.3859436 ], [ 78.5068446, 17.3860189 ], [ 78.506963, 17.3861203 ], [ 78.5070337, 17.3864285 ], [ 78.5068833, 17.3866529 ], [ 78.5066953, 17.3867496 ], [ 78.506428, 17.3869884 ], [ 78.5059361, 17.3873263 ], [ 78.5062903, 17.387321 ] ] ] } },
{ "type": "Feature", "properties": { "parcel_id": "HYD-REV-1024", "owner": "Landowner_Y", "land_use": "Residential", "source": "Municipal_Drone_Survey" }, "geometry": { "type": "Polygon", "coordinates": [ [ [ 78.511911042, 17.387115701 ], [ 78.511957289, 17.387200985 ], [ 78.512381958, 17.387007345 ], [ 78.512379382999981, 17.387004358 ], [ 78.512300691, 17.386913615 ], [ 78.511911042, 17.387115701 ] ] ] } }
]
}
